{"type": "FeatureCollection", "features": [ {"type": "Feature", "properties": {"norad_id": 32260, "name": "GPS BIIRM-4 (PRN 15)", "group": "gnss", "lat": 33.255273978201515, "lon": -121.14366399532446, "alt_km": 19905.69209979816, "timestamp": "2025-12-23T09:49:07.324632+00:00", "meta": {"OBJECT_NAME": "GPS BIIRM-4 (PRN 15)", "OBJECT_ID": "2007-047A", "EPOCH": "2025-12-22T05:26:06.407520", "MEAN_MOTION": 2.00564155, "ECCENTRICITY": 0.0163987, "INCLINATION": 53.9614, "RA_OF_ASC_NODE": 87.3666, "ARG_OF_PERICENTER": 85.3577, "MEAN_ANOMALY": 276.5274, "EPHEMERIS_TYPE": 0, "CLASSIFICATION_TYPE": "U", "NORAD_CAT_ID": 32260, "ELEMENT_SET_NO": 999, "REV_AT_EPOCH": 13326, "BSTAR": 0, "MEAN_MOTION_DOT": -1.3e-07, "MEAN_MOTION_DDOT": 0}, "tle": {"line1": "1 32260U 07047A   25356.22646305 -.00000013  00000+0  00000+0 0  9993", "line2": "2 32260  53.9614  87.3666 0163987  85.3577 276.5274  2.00564155133264"}}, "geometry": {"type": "Point", "coordinates": [-121.14366399532446, 33.255273978201515]}}, {"type": "Feature", "properties": {"norad_id": 32275, "name": "COSMOS 2433 (720)", "group": "gnss", "lat": -2.7600950507576956, "lon": -39.417898550449245, "alt_km": 19133.17056835287, "timestamp": "2025-12-23T09:49:07.324645+00:00", "meta": {"OBJECT_NAME": "COSMOS 2433 (720)", "OBJECT_ID": "2007-052A", "EPOCH": "2025-12-22T00:07:36.568704", "MEAN_MOTION": 2.13104226, "ECCENTRICITY": 0.00051704, "INCLINATION": 65.6781, "RA_OF_ASC_NODE": 321.8942, "ARG_OF_PERICENTER": 255.846, "MEAN_ANOMALY": 104.0915, "EPHEMERIS_TYPE": 0, "CLASSIFICATION_TYPE": "U", "NORAD_CAT_ID": 32275, "ELEMENT_SET_NO": 999, "REV_AT_EPOCH": 14128, "BSTAR": 0, "MEAN_MOTION_DOT": -4.2e-07, "MEAN_MOTION_DDOT": 0}, "tle": {"line1": "1 32275U 07052A   25356.00528436 -.00000042  00000+0  00000+0 0  9997", "line2": "2 32275  65.6781 321.8942 0005170 255.8460 104.0915  2.13104226141283"}}, "geometry": {"type": "Point", "coordinates": [-39.417898550449245, -2.7600950507576956]}}, {"type": "Feature", "properties": {"norad_id": 32276, "name": "COSMOS 2432 (719)", "group": "gnss", "lat": -51.11896241920124, "lon": -72.10996830269474, "alt_km": 19107.41199553444, "timestamp": "2025-12-23T09:49:07.324657+00:00", "meta": {"OBJECT_NAME": "COSMOS 2432 (719)", "OBJECT_ID": "2007-052B", "EPOCH": "2025-12-22T03:59:43.764000", "MEAN_MOTION": 2.13103428, "ECCENTRICITY": 0.00113428, "INCLINATION": 65.6941, "RA_OF_ASC_NODE": 322.0132, "ARG_OF_PERICENTER": 314.3945, "MEAN_ANOMALY": 113.6439, "EPHEMERIS_TYPE": 0, "CLASSIFICATION_TYPE": "U", "NORAD_CAT_ID": 32276, "ELEMENT_SET_NO": 999, "REV_AT_EPOCH": 14131, "BSTAR": 0, "MEAN_MOTION_DOT": -4.2e-07, "MEAN_MOTION_DDOT": 0}, "tle": {"line1": "1 32276U 07052B   25356.16647875 -.00000042  00000+0  00000+0 0  9994", "line2": "2 32276  65.6941 322.0132 0011342 314.3945 113.6439  2.13103428141317"}}, "geometry": {"type": "Point", "coordinates": [-72.10996830269474, -51.11896241920124]}}, {"type": "Feature", "properties": {"norad_id": 32384, "name": "GPS BIIRM-5 (PRN 29)", "group": "gnss", "lat": -54.979540825594434, "lon": -176.02431908816493, "alt_km": 20206.62936407145, "timestamp": "2025-12-23T09:49:07.324669+00:00", "meta": {"OBJECT_NAME": "GPS BIIRM-5 (PRN 29)", "OBJECT_ID": "2007-062A", "EPOCH": "2025-12-19T04:08:10.010976", "MEAN_MOTION": 2.00577702, "ECCENTRICITY": 0.00322663, "INCLINATION": 55.1765, "RA_OF_ASC_NODE": 281.388, "ARG_OF_PERICENTER": 162.2119, "MEAN_ANOMALY": 283.9132, "EPHEMERIS_TYPE": 0, "CLASSIFICATION_TYPE": "U", "NORAD_CAT_ID": 32384, "ELEMENT_SET_NO": 999, "REV_AT_EPOCH": 13190, "BSTAR": 0, "MEAN_MOTION_DOT": -3.8e-07, "MEAN_MOTION_DDOT": 0}, "tle": {"line1": "1 32384U 07062A   25353.17233809 -.00000038  00000+0  00000+0 0  9996", "line2": "2 32384  55.1765 281.3880 0032266 162.2119 283.9132  2.00577702131904"}}, "geometry": {"type": "Point", "coordinates": [-176.02431908816493, -54.979540825594434]}}, {"type": "Feature", "properties": {"norad_id": 32393, "name": "COSMOS 2434 (721)", "group": "gnss", "lat": -56.33730842502342, "lon": 64.1519468955828, "alt_km": 19148.33473662392, "timestamp": "2025-12-23T09:49:07.324681+00:00", "meta": {"OBJECT_NAME": "COSMOS 2434 (721)", "OBJECT_ID": "2007-065A", "EPOCH": "2025-12-22T08:26:32.754336", "MEAN_MOTION": 2.13101487, "ECCENTRICITY": 0.00048131, "INCLINATION": 64.3157, "RA_OF_ASC_NODE": 197.8788, "ARG_OF_PERICENTER": 72.4714, "MEAN_ANOMALY": 83.8697, "EPHEMERIS_TYPE": 0, "CLASSIFICATION_TYPE": "U", "NORAD_CAT_ID": 32393, "ELEMENT_SET_NO": 999, "REV_AT_EPOCH": 14000, "BSTAR": 0, "MEAN_MOTION_DOT": 9.5e-07, "MEAN_MOTION_DDOT": 0}, "tle": {"line1": "1 32393U 07065A   25356.35176799  .00000095  00000+0  00000+0 0  9998", "line2": "2 32393  64.3157 197.8788 0004813  72.4714  83.8697  2.13101487140000"}}, "geometry": {"type": "Point", "coordinates": [64.1519468955828, -56.33730842502342]}}, {"type": "Feature", "properties": {"norad_id": 32395, "name": "COSMOS 2436 (723)", "group": "gnss", "lat": 18.4010004570736, "lon": -152.8676443979458, "alt_km": 19083.412181040832, "timestamp": "2025-12-23T09:49:07.324693+00:00", "meta": {"OBJECT_NAME": "COSMOS 2436 (723)", "OBJECT_ID": "2007-065C", "EPOCH": "2025-12-22T05:06:38.797056", "MEAN_MOTION": 2.13100243, "ECCENTRICITY": 0.00178088, "INCLINATION": 64.3245, "RA_OF_ASC_NODE": 197.9539, "ARG_OF_PERICENTER": 10.2103, "MEAN_ANOMALY": 172.6703, "EPHEMERIS_TYPE": 0, "CLASSIFICATION_TYPE": "U", "NORAD_CAT_ID": 32395, "ELEMENT_SET_NO": 999, "REV_AT_EPOCH": 13995, "BSTAR": 0, "MEAN_MOTION_DOT": 9.5e-07, "MEAN_MOTION_DDOT": 0}, "tle": {"line1": "1 32395U 07065C   25356.21294904  .00000095  00000+0  00000+0 0  9994", "line2": "2 32395  64.3245 197.9539 0017808  10.2103 172.6703  2.13100243139951"}}, "geometry": {"type": "Point", "coordinates": [-152.8676443979458, 18.4010004570736]}}, {"type": "Feature", "properties": {"norad_id": 32711, "name": "GPS BIIRM-6 (PRN 07)", "group": "gnss", "lat": -6.164250699547098, "lon": -18.637454058573315, "alt_km": 19886.491497930994, "timestamp": "2025-12-23T09:49:07.324705+00:00", "meta": {"OBJECT_NAME": "GPS BIIRM-6 (PRN 07)", "OBJECT_ID": "2008-012A", "EPOCH": "2025-12-21T15:33:12.168000", "MEAN_MOTION": 2.00566008, "ECCENTRICITY": 0.02028329, "INCLINATION": 54.478, "RA_OF_ASC_NODE": 157.0174, "ARG_OF_PERICENTER": 245.0507, "MEAN_ANOMALY": 112.8153, "EPHEMERIS_TYPE": 0, "CLASSIFICATION_TYPE": "U", "NORAD_CAT_ID": 32711, "ELEMENT_SET_NO": 999, "REV_AT_EPOCH": 13019, "BSTAR": 0, "MEAN_MOTION_DOT": 7e-07, "MEAN_MOTION_DDOT": 0}, "tle": {"line1": "1 32711U 08012A   25355.64805750  .00000070  00000+0  00000+0 0  9995", "line2": "2 32711  54.4780 157.0174 0202832 245.0507 112.8153  2.00566008130191"}}, "geometry": {"type": "Point", "coordinates": [-18.637454058573315, -6.164250699547098]}}, {"type": "Feature", "properties": {"norad_id": 35752, "name": "GPS BIIRM-8 (PRN 05)", "group": "gnss", "lat": -24.359289020776842, "lon": -127.90218672120602, "alt_km": 20269.55538443149, "timestamp": "2025-12-23T09:49:07.324717+00:00", "meta": {"OBJECT_NAME": "GPS BIIRM-8 (PRN 05)", "OBJECT_ID": "2009-043A", "EPOCH": "2025-12-22T09:03:38.471040", "MEAN_MOTION": 2.00565138, "ECCENTRICITY": 0.00515987, "INCLINATION": 56.0976, "RA_OF_ASC_NODE": 34.4031, "ARG_OF_PERICENTER": 81.7402, "MEAN_ANOMALY": 102.7505, "EPHEMERIS_TYPE": 0, "CLASSIFICATION_TYPE": "U", "NORAD_CAT_ID": 35752, "ELEMENT_SET_NO": 999, "REV_AT_EPOCH": 11981, "BSTAR": 0, "MEAN_MOTION_DOT": -5.3e-07, "MEAN_MOTION_DDOT": 0}, "tle": {"line1": "1 35752U 09043A   25356.37752860 -.00000053  00000+0  00000+0 0  9994", "line2": "2 35752  56.0976  34.4031 0051598  81.7402 102.7505  2.00565138119812"}}, "geometry": {"type": "Point", "coordinates": [-127.90218672120602, -24.359289020776842]}}, {"type": "Feature", "properties": {"norad_id": 36111, "name": "COSMOS 2456 (730)", "group": "gnss", "lat": 39.52457914184892, "lon": 99.69500838754968, "alt_km": 19128.279951515324, "timestamp": "2025-12-23T09:49:07.324729+00:00", "meta": {"OBJECT_NAME": "COSMOS 2456 (730)", "OBJECT_ID": "2009-070A", "EPOCH": "2025-12-22T12:57:22.117248", "MEAN_MOTION": 2.13103796, "ECCENTRICITY": 0.00035899, "INCLINATION": 64.905, "RA_OF_ASC_NODE": 77.0029, "ARG_OF_PERICENTER": 294.9514, "MEAN_ANOMALY": 162.8071, "EPHEMERIS_TYPE": 0, "CLASSIFICATION_TYPE": "U", "NORAD_CAT_ID": 36111, "ELEMENT_SET_NO": 999, "REV_AT_EPOCH": 12466, "BSTAR": 0, "MEAN_MOTION_DOT": -4e-08, "MEAN_MOTION_DDOT": 0}, "tle": {"line1": "1 36111U 09070A   25356.53983932 -.00000004  00000+0  00000+0 0  9994", "line2": "2 36111  64.9050  77.0029 0003589 294.9514 162.8071  2.13103796124668"}}, "geometry": {"type": "Point", "coordinates": [99.69500838754968, 39.52457914184892]}}, {"type": "Feature", "properties": {"norad_id": 36112, "name": "COSMOS 2457 (733)", "group": "gnss", "lat": 5.700813164460521, "lon": -105.84386563072827, "alt_km": 19118.45134732284, "timestamp": "2025-12-23T09:49:07.324740+00:00", "meta": {"OBJECT_NAME": "COSMOS 2457 (733)", "OBJECT_ID": "2009-070B", "EPOCH": "2025-12-22T17:02:17.171808", "MEAN_MOTION": 2.13101138, "ECCENTRICITY": 0.00045164, "INCLINATION": 64.8907, "RA_OF_ASC_NODE": 76.8445, "ARG_OF_PERICENTER": 162.819, "MEAN_ANOMALY": 194.4709, "EPHEMERIS_TYPE": 0, "CLASSIFICATION_TYPE": "U", "NORAD_CAT_ID": 36112, "ELEMENT_SET_NO": 999, "REV_AT_EPOCH": 12466, "BSTAR": 0, "MEAN_MOTION_DOT": -3e-08, "MEAN_MOTION_DDOT": 0}, "tle": {"line1": "1 36112U 09070B   25356.70992097 -.00000003  00000+0  00000+0 0  9995", "line2": "2 36112  64.8907  76.8445 0004516 162.8190 194.4709  2.13101138124669"}}, "geometry": {"type": "Point", "coordinates": [-105.84386563072827, 5.700813164460521]}}]}